{
  "type": "FeatureCollection",
  "features": [
    {
      "type": "Feature",
      "properties": {
        "norad_id": 38479,
        "name": "COSMOS 2251 DEB",
        "group": "cosmos-2251-debris",
        "lat": 73.80014657185345,
        "lon": -60.66477222874638,
        "alt_km": 805.0393444991023,
        "timestamp": "2025-12-04T03:47:54.940179+00:00",
        "meta_object_name": "COSMOS 2251 DEB",
        "meta_object_id": "1993-036BTP",
        "meta_epoch": "2025-11-15T12:46:06.719808",
        "meta_mean_motion": 14.37875238,
        "meta_eccentricity": 0.00846922,
        "meta_inclination": 74.0077,
        "meta_ra_of_asc_node": 234.4912,
        "meta_arg_of_pericenter": 348.2771,
        "meta_mean_anomaly": 195.3627,
        "meta_ephemeris_type": 0,
        "meta_classification_type": "U",
        "meta_norad_cat_id": 38479,
        "meta_element_set_no": 999,
        "meta_rev_at_epoch": 64296,
        "meta_bstar": 0.00281077,
        "meta_mean_motion_dot": 8.824e-05,
        "meta_mean_motion_ddot": 0,
        "tle_line1": "1 38479U 93036BTP 25319.53202222  .00008824  00000+0  28108-2 0  9992",
        "tle_line2": "2 38479  74.0077 234.4912 0084692 348.2771 195.3627 14.37875238642962"
      },
      "geometry": {
        "type": "Point",
        "coordinates": [
          -60.66477222874638,
          73.80014657185345
        ]
      }
    },
    {
      "type": "Feature",
      "properties": {
        "norad_id": 38481,
        "name": "COSMOS 2251 DEB",
        "group": "cosmos-2251-debris",
        "lat": -66.50798357574664,
        "lon": -116.07703884434554,
        "alt_km": 861.7342411062491,
        "timestamp": "2025-12-04T03:47:54.940189+00:00",
        "meta_object_name": "COSMOS 2251 DEB",
        "meta_object_id": "1993-036BTR",
        "meta_epoch": "2025-11-30T21:06:34.190496",
        "meta_mean_motion": 13.94733975,
        "meta_eccentricity": 0.02337783,
        "meta_inclination": 73.9329,
        "meta_ra_of_asc_node": 28.0528,
        "meta_arg_of_pericenter": 330.587,
        "meta_mean_anomaly": 28.2266,
        "meta_ephemeris_type": 0,
        "meta_classification_type": "U",
        "meta_norad_cat_id": 38481,
        "meta_element_set_no": 999,
        "meta_rev_at_epoch": 58895,
        "meta_bstar": 0.0013592661,
        "meta_mean_motion_dot": 2.261e-05,
        "meta_mean_motion_ddot": 0,
        "tle_line1": "1 38481U 93036BTR 25334.87956239  .00002261  00000+0  13593-2 0  9994",
        "tle_line2": "2 38481  73.9329  28.0528 0233778 330.5870  28.2266 13.94733975588952"
      },
      "geometry": {
        "type": "Point",
        "coordinates": [
          -116.07703884434554,
          -66.50798357574664
        ]
      }
    },
    {
      "type": "Feature",
      "properties": {
        "norad_id": 38483,
        "name": "COSMOS 2251 DEB",
        "group": "cosmos-2251-debris",
        "lat": 26.933456034593334,
        "lon": 35.345288918547666,
        "alt_km": 817.5189584859099,
        "timestamp": "2025-12-04T03:47:54.940199+00:00",
        "meta_object_name": "COSMOS 2251 DEB",
        "meta_object_id": "1993-036BTT",
        "meta_epoch": "2025-11-30T10:35:51.419040",
        "meta_mean_motion": 14.2869489,
        "meta_eccentricity": 0.01113545,
        "meta_inclination": 74.2627,
        "meta_ra_of_asc_node": 33.7569,
        "meta_arg_of_pericenter": 143.1875,
        "meta_mean_anomaly": 217.699,
        "meta_ephemeris_type": 0,
        "meta_classification_type": "U",
        "meta_norad_cat_id": 38483,
        "meta_element_set_no": 999,
        "meta_rev_at_epoch": 63302,
        "meta_bstar": 0.00092192588,
        "meta_mean_motion_dot": 2.455e-05,
        "meta_mean_motion_ddot": 0,
        "tle_line1": "1 38483U 93036BTT 25334.44156735  .00002455  00000+0  92193-3 0  9991",
        "tle_line2": "2 38483  74.2627  33.7569 0111354 143.1875 217.6990 14.28694890633022"
      },
      "geometry": {
        "type": "Point",
        "coordinates": [
          35.345288918547666,
          26.933456034593334
        ]
      }
    },
    {
      "type": "Feature",
      "properties": {
        "norad_id": 38486,
        "name": "COSMOS 2251 DEB",
        "group": "cosmos-2251-debris",
        "lat": 72.58838864082378,
        "lon": -71.6178274740865,
        "alt_km": 639.9856085734818,
        "timestamp": "2025-12-04T03:47:54.940210+00:00",
        "meta_object_name": "COSMOS 2251 DEB",
        "meta_object_id": "1993-036BTW",
        "meta_epoch": "2025-12-01T23:18:40.096224",
        "meta_mean_motion": 14.72693828,
        "meta_eccentricity": 0.00300221,
        "meta_inclination": 73.9411,
        "meta_ra_of_asc_node": 225.9531,
        "meta_arg_of_pericenter": 11.225,
        "meta_mean_anomaly": 1.4037,
        "meta_ephemeris_type": 0,
        "meta_classification_type": "U",
        "meta_norad_cat_id": 38486,
        "meta_element_set_no": 999,
        "meta_rev_at_epoch": 75276,
        "meta_bstar": 0.0031614805,
        "meta_mean_motion_dot": 0.00020338,
        "meta_mean_motion_ddot": 0,
        "tle_line1": "1 38486U 93036BTW 25335.97129741  .00020338  00000+0  31615-2 0  9991",
        "tle_line2": "2 38486  73.9411 225.9531 0030022  11.2250   1.4037 14.72693828752763"
      },
      "geometry": {
        "type": "Point",
        "coordinates": [
          -71.6178274740865,
          72.58838864082378
        ]
      }
    },
    {
      "type": "Feature",
      "properties": {
        "norad_id": 38487,
        "name": "COSMOS 2251 DEB",
        "group": "cosmos-2251-debris",
        "lat": -47.492423734437494,
        "lon": 33.52030412786515,
        "alt_km": 522.6388542021159,
        "timestamp": "2025-12-04T03:47:54.940220+00:00",
        "meta_object_name": "COSMOS 2251 DEB",
        "meta_object_id": "1993-036BTX",
        "meta_epoch": "2025-11-25T23:36:21.750048",
        "meta_mean_motion": 15.15423903,
        "meta_eccentricity": 0.00258162,
        "meta_inclination": 73.973,
        "meta_ra_of_asc_node": 68.8809,
        "meta_arg_of_pericenter": 242.4784,
        "meta_mean_anomaly": 117.3787,
        "meta_ephemeris_type": 0,
        "meta_classification_type": "U",
        "meta_norad_cat_id": 38487,
        "meta_element_set_no": 999,
        "meta_rev_at_epoch": 66546,
        "meta_bstar": 0.0025488114,
        "meta_mean_motion_dot": 0.00048866,
        "meta_mean_motion_ddot": 0,
        "tle_line1": "1 38487U 93036BTX 25329.98358507  .00048866  00000+0  25488-2 0  9997",
        "tle_line2": "2 38487  73.9730  68.8809 0025816 242.4784 117.3787 15.15423903665467"
      },
      "geometry": {
        "type": "Point",
        "coordinates": [
          33.52030412786515,
          -47.492423734437494
        ]
      }
    },
    {
      "type": "Feature",
      "properties": {
        "norad_id": 39109,
        "name": "COSMOS 2251 DEB",
        "group": "cosmos-2251-debris",
        "lat": -41.10393349909677,
        "lon": 76.19128590437897,
        "alt_km": 687.1138160755963,
        "timestamp": "2025-12-04T03:47:54.940230+00:00",
        "meta_object_name": "COSMOS 2251 DEB",
        "meta_object_id": "1993-036BTY",
        "meta_epoch": "2025-11-13T05:50:34.179360",
        "meta_mean_motion": 14.70365272,
        "meta_eccentricity": 0.0058425,
        "meta_inclination": 74.0424,
        "meta_ra_of_asc_node": 282.2926,
        "meta_arg_of_pericenter": 32.7567,
        "meta_mean_anomaly": 29.6254,
        "meta_ephemeris_type": 0,
        "meta_classification_type": "U",
        "meta_norad_cat_id": 39109,
        "meta_element_set_no": 999,
        "meta_rev_at_epoch": 64740,
        "meta_bstar": 0.0018778,
        "meta_mean_motion_dot": 0.00011647,
        "meta_mean_motion_ddot": 0,
        "tle_line1": "1 39109U 93036BTY 25317.24345115  .00011647  00000+0  18778-2 0  9997",
        "tle_line2": "2 39109  74.0424 282.2926 0058425  32.7567  29.6254 14.70365272647406"
      },
      "geometry": {
        "type": "Point",
        "coordinates": [
          76.19128590437897,
          -41.10393349909677
        ]
      }
    },
    {
      "type": "Feature",
      "properties": {
        "norad_id": 39110,
        "name": "COSMOS 2251 DEB",
        "group": "cosmos-2251-debris",
        "lat": -11.272090477132245,
        "lon": 75.00522747077619,
        "alt_km": 602.7831701780151,
        "timestamp": "2025-12-04T03:47:54.940240+00:00",
        "meta_object_name": "COSMOS 2251 DEB",
        "meta_object_id": "1993-036BTZ",
        "meta_epoch": "2025-11-26T14:53:47.177952",
        "meta_mean_motion": 14.72173174,
        "meta_eccentricity": 0.00967356,
        "meta_inclination": 73.9585,
        "meta_ra_of_asc_node": 93.0232,
        "meta_arg_of_pericenter": 328.841,
        "meta_mean_anomaly": 46.9197,
        "meta_ephemeris_type": 0,
        "meta_classification_type": "U",
        "meta_norad_cat_id": 39110,
        "meta_element_set_no": 999,
        "meta_rev_at_epoch": 62247,
        "meta_bstar": 0.00042648822,
        "meta_mean_motion_dot": 2.857e-05,
        "meta_mean_motion_ddot": 0,
        "tle_line1": "1 39110U 93036BTZ 25330.62068493  .00002857  00000+0  42649-3 0  9995",
        "tle_line2": "2 39110  73.9585  93.0232 0096735 328.8410  46.9197 14.72173174622472"
      },
      "geometry": {
        "type": "Point",
        "coordinates": [
          75.00522747077619,
          -11.272090477132245
        ]
      }
    }
  ]
}